KUIPER-00165            
1 65778U 25217S   25337.16668980 -.00016874  00000+0 -55944-3 0  9991
2 65778  51.8719 110.8639 0004758 313.9007 249.3498 15.30120921  4761
KUIPER-00166            
1 65779U 25217T   25337.09590388  .00070083  00000+0  18169-2 0  9997
2 65779  51.8705 110.8574 0003507 293.1275  66.9342 15.38367785 10567
KUIPER-00167            
1 65780U 25217U   25337.16668980  .00027388  00000+0  18867-2 0  9996
2 65780  51.8824 114.2732 0011325 311.2654 335.0742 15.05606104  4679
KUIPER-00168            
1 65781U 25217V   25336.67564642  .00036998  00000+0  96074-3 0  9996
2 65781  51.8708 112.5510 0002051 206.8386 153.2496 15.38608449 10508
KUIPER-00169            
1 65782U 25217W   25337.16668980 -.00552000  00000+0 -16431-1 0  9998
2 65782  51.8715 110.5325 0004038 295.2991  91.0811 15.36409511  3936
KUIPER-00170            
1 65783U 25217X   25337.16668980 -.00771138  00000+0 -31900-1 0  9992
2 65783  51.8728 111.5647 0007807 324.6671 276.4631 15.25892580  5401
KUIPER-00171            
1 65784U 25217Y   25336.85846434  .00276336  00000+0  24024-2 0  9998
2 65784  51.8572 106.3037 0009271 328.7621  31.2826 15.67607118 10609
KUIPER-00172            
1 65785U 25217Z   25336.68882944  .00049577  00000+0  12914-2 0  9996
2 65785  51.8711 112.6376 0003913 295.2754  64.7828 15.38375005 10500
KUIPER-00173            
1 65786U 25217AA  25337.16668980 -.00796499  00000+0 -25254-1 0  9997
2 65786  51.8709 110.4754 0003593 273.4950 129.0193 15.34550050  5611
KUIPER-00174            
1 65787U 25217AB  25337.07363544  .00027833  00000+0  73678-3 0  9998
2 65787  51.8706 110.7156 0003275 244.2685 115.7964 15.38159267 10563
KUIPER-00176            
1 65788U 25217AC  25337.16668980 -.00014579  00000+0 -83238-3 0  9999
2 65788  51.8810 112.8165 0003142 297.6138 359.5206 15.11603781  4938
KUIPER-00101            
1 65947U 25228A   25337.16668980 -.00778576  00000+0 -53739-1 0  9993
2 65947  51.9111  69.3841 0003185 340.8360 265.4695 15.07780935  5460
KUIPER-00113            
1 65948U 25228B   25337.16668980 -.01110781  00000+0 -60927-1 0  9990
2 65948  51.8821  67.5767 0005690 326.8899  10.9116 15.16462300  4541
KUIPER-00117            
1 65949U 25228C   25337.16668980 -.01102382  00000+0 -63979-1 0  9999
2 65949  51.8858  68.3243 0009462 339.9678 350.0690 15.14421329  5530
KUIPER-00121            
1 65950U 25228D   25337.16668980 -.00620608  00000+0 -24463-1 0  9991
2 65950  51.8833  67.0104 0005521 349.5260 319.5528 15.27371303  5410
KUIPER-00122            
1 65951U 25228E   25337.16668980  .00039904  00000+0  32690-2 0  9995
2 65951  51.8925  70.8764 0006293   4.3270 235.3796 14.98885645  5329
KUIPER-00123            
1 65952U 25228F   25337.16668980  .00038227  00000+0  32465-2 0  9993
2 65952  51.8939  70.8729 0006372 338.9145 145.2993 14.97511502  5854
KUIPER-00124            
1 65953U 25228G   25337.16668980 -.00798643  00000+0 -31432-1 0  9993
2 65953  51.8835  67.0729 0005571 346.2779 291.1104 15.27638264  5521
KUIPER-00125            
1 65954U 25228H   25336.95067762  .00044290  00000+0  12513-2 0  9991
2 65954  51.8787  67.6875 0006093 335.6243  24.4454 15.35898526  8913
KUIPER-00126            
1 65955U 25228J   25337.16668980 -.01539726  00000+0 -11207+0 0  9997
2 65955  51.8937  69.4607 0006448 341.0022 137.0314 15.06867654  4990
KUIPER-00127            
1 65956U 25228K   25337.16668980  .00041189  00000+0  22060-2 0  9998
2 65956  51.8920  68.2409 0003783  17.8645  62.1182 15.14612346  3308
KUIPER-00128            
1 65957U 25228L   25337.16668980  .00074728  00000+0  26970-2 0  9998
2 65957  51.8819  66.8790 0004346 328.3054  19.8413 15.27820463  5609
KUIPER-00129            
1 65958U 25228M   25336.49202994  .00023057  00000+0  65772-3 0  9996
2 65958  51.8793  69.8743 0006085 319.5401  40.5132 15.35933610  8848
KUIPER-00130            
1 65959U 25228N   25337.16668980 -.00333360  00000+0 -10702-1 0  9997
2 65959  51.8787  66.7577 0005456 334.0238  88.0337 15.33132503  4866
KUIPER-00134            
1 65960U 25228P   25336.96034757  .00043186  00000+0  12438-2 0  9996
2 65960  51.8790  67.7492 0006605 339.1244  20.9472 15.35305568  8919
KUIPER-00135            
1 65961U 25228Q   25337.16668980 -.00420638  00000+0 -14182-1 0  9991
2 65961  51.8811  66.8207 0004945 327.4822  59.2908 15.31953628  4349
KUIPER-00136            
1 65962U 25228R   25336.55552566  .00042290  00000+0  11932-2 0  9999
2 65962  51.8793  69.5498 0005889 324.2187  35.8403 15.35963036  8856
KUIPER-00137            
1 65963U 25228S   25336.57023974  .00033464  00000+0  96814-3 0  9994
2 65963  51.8800  69.6482 0006125 343.3778  16.7007 15.35287039  8852
KUIPER-00138            
1 65964U 25228T   25336.96462892  .00068430  00000+0  19586-2 0  9995
2 65964  51.8802  67.7820 0007511 347.3862  12.6934 15.35287557  8914
KUIPER-00140            
1 65965U 25228U   25336.96985806  .00082753  00000+0  23985-2 0  9993
2 65965  51.8807  67.8200 0007670 346.6042  13.4739 15.34802183  8910
KUIPER-00141            
1 65966U 25228V   25336.55931578  .00044012  00000+0  12434-2 0  9999
2 65966  51.8790  69.5665 0006170 330.6819  29.3820 15.35902975  8856
KUIPER-00146            
1 65967U 25228W   25336.95737928  .00050254  00000+0  14393-2 0  9998
2 65967  51.8805  67.7437 0006508 335.6772  24.3906 15.35412854  8918
KUIPER-00149            
1 65968U 25228X   25336.55523994  .00013964  00000+0  40277-3 0  9999
2 65968  51.8795  69.5422 0005549 325.4866  34.5759 15.35962169  8857
KUIPER-00154            
1 65969U 25228Y   25336.49330567  .00037417  00000+0  10715-2 0  9997
2 65969  51.8787  69.8749 0005964 323.5681  36.4898 15.35552628  8848
KUIPER-00157            
1 65970U 25228Z   25336.57092320  .00033395  00000+0  96524-3 0  9994
2 65970  51.8797  69.6518 0006921 342.6006  17.4742 15.35312670  8859
